ONEWEB-0300             
1 49089U 21075Q   24248.72469444  .00000443  00000+0  11949-2 0  9991
2 49089  87.8895 120.2195 0001380  71.7546 288.3732 13.12440816149882
ONEWEB-0301             
1 49090U 21075R   24249.16586319  .00003956  00000+0  10953-1 0  9998
2 49090  87.8893 120.1353 0001151  84.9213 275.2047 13.12471399150291
ONEWEB-0302             
1 49091U 21075S   24249.15292186  .00000120  00000+0  29770-3 0  9993
2 49091  87.8897 120.1366 0001931  80.7767 279.3580 13.12442974150287
ONEWEB-0304             
1 49092U 21075T   24248.69947658  .00000156  00000+0  36799-3 0  9991
2 49092  87.9159 135.4333 0002078  75.9161 284.2202 13.17651335147910
ONEWEB-0305             
1 49093U 21075U   24248.76733637  .00000190  00000+0  45566-3 0  9990
2 49093  87.9158 135.4044 0002132  68.0651 292.0707 13.17650034147953
ONEWEB-0308             
1 49094U 21075V   24248.68902112  .00000035  00000+0  62912-4 0  9991
2 49094  87.8896 120.2276 0001661  77.7157 282.4158 13.12444239149234
ONEWEB-0309             
1 49095U 21075W   24248.77218470  .00000153  00000+0  36089-3 0  9995
2 49095  87.9160 135.4106 0002204  88.5462 271.5922 13.17651536147920
ONEWEB-0310             
1 49096U 21075X   24249.16102095  .00000266  00000+0  70297-3 0  9999
2 49096  87.8905 120.1488 0001784  81.7741 278.3590 13.12445760150923
